{
    "links": {
        "self": "http://www.neowsapp.com/rest/v1/neo/3843514?api_key=iIulBulltgU6a56xZRHN4H3l9WmuAYTsLGpBGhQ2"
    },
    "id": "3843514",
    "neo_reference_id": "3843514",
    "name": "(2019 PQ1)",
    "designation": "2019 PQ1",
    "nasa_jpl_url": "http://ssd.jpl.nasa.gov/sbdb.cgi?sstr=3843514",
    "absolute_magnitude_h": 24.6,
    "estimated_diameter": {
        "kilometers": {
            "estimated_diameter_min": 0.0319561887,
            "estimated_diameter_max": 0.0714562102
        },
        "meters": {
            "estimated_diameter_min": 31.9561886721,
            "estimated_diameter_max": 71.4562101727
        },
        "miles": {
            "estimated_diameter_min": 0.0198566489,
            "estimated_diameter_max": 0.0444008168
        },
        "feet": {
            "estimated_diameter_min": 104.8431420431,
            "estimated_diameter_max": 234.436392583
        }
    },
    "is_potentially_hazardous_asteroid": false,
    "close_approach_data": [
        {
            "close_approach_date": "2019-08-05",
            "close_approach_date_full": "2019-Aug-05 17:04",
            "epoch_date_close_approach": 1565024640000,
            "relative_velocity": {
                "kilometers_per_second": "8.9900582937",
                "kilometers_per_hour": "32364.2098572066",
                "miles_per_hour": "20109.8613971071"
            },
            "miss_distance": {
                "astronomical": "0.0597557269",
                "lunar": "23.2449777641",
                "kilometers": "8939329.464541703",
                "miles": "5554641.7571053814"
            },
            "orbiting_body": "Earth"
        }
    ],
    "orbital_data": {
        "orbit_id": "2",
        "orbit_determination_date": "2019-08-12 05:32:49",
        "first_observation_date": "2019-08-08",
        "last_observation_date": "2019-08-11",
        "data_arc_in_days": 3,
        "observations_used": 21,
        "orbit_uncertainty": "8",
        "minimum_orbit_intersection": ".0366607",
        "jupiter_tisserand_invariant": "3.443",
        "epoch_osculation": "2458705.5",
        "eccentricity": ".5257883752497103",
        "semi_major_axis": "2.213265584961215",
        "inclination": "10.22953695477921",
        "ascending_node_longitude": "321.6387884287323",
        "orbital_period": "1202.676218580876",
        "perihelion_distance": "1.049556269048358",
        "perihelion_argument": ".8950399550831643",
        "aphelion_distance": "3.376974900874072",
        "perihelion_time": "2458707.995478778172",
        "mean_anomaly": "359.2530222629645",
        "mean_motion": ".2993324341482281",
        "equinox": "J2000",
        "orbit_class": {
            "orbit_class_type": "AMO",
            "orbit_class_description": "Near-Earth asteroid orbits similar to that of 1221 Amor",
            "orbit_class_range": "1.017 AU < q (perihelion) < 1.3 AU"
        }
    },
    "is_sentry_object": false
}